<?xml version="1.0" encoding="UTF-8"?>
<kml xmlns="http://www.opengis.net/kml/2.2">
  <Document>
    <name>たちさんぽvol.1</name>
    <description/>
    <Style id="icon-1899-DB4436-nodesc-normal">
      <IconStyle>
        <color>ff3644db</color>
        <scale>1</scale>
        <Icon>
          <href>https://www.gstatic.com/mapspro/images/stock/503-wht-blank_maps.png</href>
        </Icon>
        <hotSpot x="32" xunits="pixels" y="64" yunits="insetPixels"/>
      </IconStyle>
      <LabelStyle>
        <scale>0</scale>
      </LabelStyle>
      <BalloonStyle>
        <text><![CDATA[<h3>$[name]</h3>]]></text>
      </BalloonStyle>
    </Style>
    <Style id="icon-1899-DB4436-nodesc-highlight">
      <IconStyle>
        <color>ff3644db</color>
        <scale>1</scale>
        <Icon>
          <href>https://www.gstatic.com/mapspro/images/stock/503-wht-blank_maps.png</href>
        </Icon>
        <hotSpot x="32" xunits="pixels" y="64" yunits="insetPixels"/>
      </IconStyle>
      <LabelStyle>
        <scale>1</scale>
      </LabelStyle>
      <BalloonStyle>
        <text><![CDATA[<h3>$[name]</h3>]]></text>
      </BalloonStyle>
    </Style>
    <StyleMap id="icon-1899-DB4436-nodesc">
      <Pair>
        <key>normal</key>
        <styleUrl>#icon-1899-DB4436-nodesc-normal</styleUrl>
      </Pair>
      <Pair>
        <key>highlight</key>
        <styleUrl>#icon-1899-DB4436-nodesc-highlight</styleUrl>
      </Pair>
    </StyleMap>
    <Style id="icon-seq2-1-0-0288D1-labelson-nodesc">
      <IconStyle>
        <color>ffd18802</color>
        <scale>1</scale>
        <Icon>
          <href>images/icon-1.png</href>
        </Icon>
      </IconStyle>
      <BalloonStyle>
        <text><![CDATA[<h3>$[name]</h3>]]></text>
      </BalloonStyle>
    </Style>
    <Style id="icon-seq2-1-1-0288D1-labelson-nodesc">
      <IconStyle>
        <color>ffd18802</color>
        <scale>1</scale>
        <Icon>
          <href>images/icon-2.png</href>
        </Icon>
      </IconStyle>
      <BalloonStyle>
        <text><![CDATA[<h3>$[name]</h3>]]></text>
      </BalloonStyle>
    </Style>
    <Style id="icon-seq2-1-10-0288D1-labelson-nodesc">
      <IconStyle>
        <color>ffd18802</color>
        <scale>1</scale>
        <Icon>
          <href>images/icon-11.png</href>
        </Icon>
      </IconStyle>
      <BalloonStyle>
        <text><![CDATA[<h3>$[name]</h3>]]></text>
      </BalloonStyle>
    </Style>
    <Style id="icon-seq2-1-11-0288D1-labelson-nodesc">
      <IconStyle>
        <color>ffd18802</color>
        <scale>1</scale>
        <Icon>
          <href>images/icon-12.png</href>
        </Icon>
      </IconStyle>
      <BalloonStyle>
        <text><![CDATA[<h3>$[name]</h3>]]></text>
      </BalloonStyle>
    </Style>
    <Style id="icon-seq2-1-12-0288D1-labelson-nodesc">
      <IconStyle>
        <color>ffd18802</color>
        <scale>1</scale>
        <Icon>
          <href>images/icon-13.png</href>
        </Icon>
      </IconStyle>
      <BalloonStyle>
        <text><![CDATA[<h3>$[name]</h3>]]></text>
      </BalloonStyle>
    </Style>
    <Style id="icon-seq2-1-13-0288D1-labelson-nodesc">
      <IconStyle>
        <color>ffd18802</color>
        <scale>1</scale>
        <Icon>
          <href>images/icon-14.png</href>
        </Icon>
      </IconStyle>
      <BalloonStyle>
        <text><![CDATA[<h3>$[name]</h3>]]></text>
      </BalloonStyle>
    </Style>
    <Style id="icon-seq2-1-14-0288D1-labelson">
      <IconStyle>
        <color>ffd18802</color>
        <scale>1</scale>
        <Icon>
          <href>images/icon-15.png</href>
        </Icon>
      </IconStyle>
    </Style>
    <Style id="icon-seq2-1-2-0288D1-labelson-nodesc">
      <IconStyle>
        <color>ffd18802</color>
        <scale>1</scale>
        <Icon>
          <href>images/icon-3.png</href>
        </Icon>
      </IconStyle>
      <BalloonStyle>
        <text><![CDATA[<h3>$[name]</h3>]]></text>
      </BalloonStyle>
    </Style>
    <Style id="icon-seq2-1-3-0288D1-labelson-nodesc">
      <IconStyle>
        <color>ffd18802</color>
        <scale>1</scale>
        <Icon>
          <href>images/icon-4.png</href>
        </Icon>
      </IconStyle>
      <BalloonStyle>
        <text><![CDATA[<h3>$[name]</h3>]]></text>
      </BalloonStyle>
    </Style>
    <Style id="icon-seq2-1-4-0288D1-labelson-nodesc">
      <IconStyle>
        <color>ffd18802</color>
        <scale>1</scale>
        <Icon>
          <href>images/icon-5.png</href>
        </Icon>
      </IconStyle>
      <BalloonStyle>
        <text><![CDATA[<h3>$[name]</h3>]]></text>
      </BalloonStyle>
    </Style>
    <Style id="icon-seq2-1-5-0288D1-labelson-nodesc">
      <IconStyle>
        <color>ffd18802</color>
        <scale>1</scale>
        <Icon>
          <href>images/icon-6.png</href>
        </Icon>
      </IconStyle>
      <BalloonStyle>
        <text><![CDATA[<h3>$[name]</h3>]]></text>
      </BalloonStyle>
    </Style>
    <Style id="icon-seq2-1-6-0288D1-labelson-nodesc">
      <IconStyle>
        <color>ffd18802</color>
        <scale>1</scale>
        <Icon>
          <href>images/icon-7.png</href>
        </Icon>
      </IconStyle>
      <BalloonStyle>
        <text><![CDATA[<h3>$[name]</h3>]]></text>
      </BalloonStyle>
    </Style>
    <Style id="icon-seq2-1-7-0288D1-labelson-nodesc">
      <IconStyle>
        <color>ffd18802</color>
        <scale>1</scale>
        <Icon>
          <href>images/icon-8.png</href>
        </Icon>
      </IconStyle>
      <BalloonStyle>
        <text><![CDATA[<h3>$[name]</h3>]]></text>
      </BalloonStyle>
    </Style>
    <Style id="icon-seq2-1-8-0288D1-labelson-nodesc">
      <IconStyle>
        <color>ffd18802</color>
        <scale>1</scale>
        <Icon>
          <href>images/icon-9.png</href>
        </Icon>
      </IconStyle>
      <BalloonStyle>
        <text><![CDATA[<h3>$[name]</h3>]]></text>
      </BalloonStyle>
    </Style>
    <Style id="icon-seq2-1-9-0288D1-labelson-nodesc">
      <IconStyle>
        <color>ffd18802</color>
        <scale>1</scale>
        <Icon>
          <href>images/icon-10.png</href>
        </Icon>
      </IconStyle>
      <BalloonStyle>
        <text><![CDATA[<h3>$[name]</h3>]]></text>
      </BalloonStyle>
    </Style>
    <Style id="line-1267FF-5000-nodesc-normal">
      <LineStyle>
        <color>ffff6712</color>
        <width>5</width>
      </LineStyle>
      <BalloonStyle>
        <text><![CDATA[<h3>$[name]</h3>]]></text>
      </BalloonStyle>
    </Style>
    <Style id="line-1267FF-5000-nodesc-highlight">
      <LineStyle>
        <color>ffff6712</color>
        <width>7.5</width>
      </LineStyle>
      <BalloonStyle>
        <text><![CDATA[<h3>$[name]</h3>]]></text>
      </BalloonStyle>
    </Style>
    <StyleMap id="line-1267FF-5000-nodesc">
      <Pair>
        <key>normal</key>
        <styleUrl>#line-1267FF-5000-nodesc-normal</styleUrl>
      </Pair>
      <Pair>
        <key>highlight</key>
        <styleUrl>#line-1267FF-5000-nodesc-highlight</styleUrl>
      </Pair>
    </StyleMap>
    <Folder>
      <name>立川駅〜西立川駅</name>
      <Placemark>
        <name>立川駅〜西立川駅</name>
        <styleUrl>#line-1267FF-5000-nodesc</styleUrl>
        <LineString>
          <tessellate>1</tessellate>
          <coordinates>
            139.41378,35.69826,0
            139.41367,35.69731,0
            139.4135,35.69732,0
            139.41346,35.6973,0
            139.41326,35.69728,0
            139.41326,35.69717,0
            139.41314,35.69716,0
            139.41311,35.69713,0
            139.41307,35.69708,0
            139.41305,35.69705,0
            139.41303,35.69702,0
            139.41296,35.69704,0
            139.4129,35.69707,0
            139.41287,35.69708,0
            139.41283,35.69709,0
            139.41279,35.69711,0
            139.41215,35.69728,0
            139.41208,35.6973,0
            139.41199,35.69733,0
            139.4111,35.69756,0
            139.41103,35.69758,0
            139.41093,35.69759,0
            139.41067,35.69766,0
            139.41056,35.69768,0
            139.4105,35.69768,0
            139.41044,35.69767,0
            139.41032,35.69765,0
            139.41028,35.69764,0
            139.41025,35.69762,0
            139.41019,35.69759,0
            139.41016,35.69757,0
            139.41013,35.69755,0
            139.41002,35.69747,0
            139.40997,35.69744,0
            139.40993,35.69743,0
            139.40988,35.69739,0
            139.40974,35.69728,0
            139.40956,35.69713,0
            139.40955,35.69711,0
            139.4092,35.69682,0
            139.40911,35.69676,0
            139.40884,35.69652,0
            139.40877,35.69646,0
            139.40869,35.69639,0
            139.40868,35.69638,0
            139.40865,35.69636,0
            139.40855,35.69626,0
            139.40855,35.69623,0
            139.40844,35.69613,0
            139.4084,35.69608,0
            139.40833,35.69601,0
            139.40827,35.69592,0
            139.40822,35.69585,0
            139.4082,35.69583,0
            139.40818,35.69581,0
            139.40812,35.69573,0
            139.40809,35.69569,0
            139.40805,35.69563,0
            139.40802,35.69559,0
            139.40793,35.69554,0
            139.4079,35.69553,0
            139.40784,35.69549,0
            139.40755,35.69533,0
            139.40753,35.69531,0
            139.4074,35.69524,0
            139.40717,35.69512,0
            139.40714,35.6951,0
            139.40709,35.69507,0
            139.40678,35.69488,0
            139.40671,35.69482,0
            139.40664,35.69476,0
            139.40656,35.69469,0
            139.40651,35.69465,0
            139.40637,35.69452,0
            139.40625,35.69442,0
            139.40622,35.6944,0
            139.40621,35.69439,0
            139.40615,35.69435,0
            139.40608,35.69431,0
            139.406,35.69426,0
            139.40595,35.69424,0
            139.40589,35.69421,0
            139.40585,35.6942,0
            139.40581,35.69418,0
            139.40571,35.69413,0
            139.40554,35.69404,0
            139.40535,35.69396,0
            139.4053,35.69394,0
            139.40522,35.69391,0
            139.4052,35.69389,0
            139.40495,35.69378,0
            139.40487,35.69375,0
            139.40465,35.69365,0
            139.40463,35.69364,0
            139.40456,35.69362,0
            139.40452,35.69362,0
            139.40449,35.69361,0
            139.40446,35.69361,0
            139.40437,35.69361,0
            139.40417,35.69361,0
            139.40414,35.69361,0
            139.40411,35.69361,0
            139.4041,35.69362,0
            139.40409,35.69362,0
            139.40406,35.69363,0
            139.40404,35.69365,0
            139.40401,35.6937,0
            139.40396,35.69377,0
            139.40395,35.6938,0
            139.40394,35.69382,0
            139.40394,35.69384,0
            139.40394,35.69386,0
            139.40395,35.69399,0
            139.40395,35.69402,0
            139.40394,35.69407,0
            139.40395,35.69413,0
            139.40395,35.69416,0
            139.40396,35.69424,0
            139.40396,35.69427,0
            139.40392,35.69427,0
            139.40393,35.69429,0
            139.40395,35.69442,0
            139.40396,35.69448,0
            139.40388,35.69452,0
            139.40383,35.69454,0
            139.40381,35.69455,0
            139.40377,35.69448,0
            139.40374,35.69442,0
            139.40372,35.69439,0
            139.40366,35.69427,0
            139.40364,35.69423,0
            139.40357,35.69409,0
            139.40357,35.69408,0
            139.4036,35.69406,0
            139.40361,35.69405,0
            139.40362,35.69405,0
            139.40362,35.69404,0
            139.40363,35.69403,0
            139.40363,35.69402,0
            139.40362,35.694,0
            139.40361,35.69398,0
            139.40357,35.69389,0
            139.40354,35.6939,0
            139.40351,35.69386,0
            139.40341,35.69366,0
            139.40334,35.69353,0
            139.40333,35.69351,0
            139.4033,35.69346,0
            139.4032,35.69326,0
            139.40278,35.69338,0
            139.40269,35.69341,0
            139.40265,35.69342,0
            139.40262,35.69343,0
            139.40259,35.69344,0
            139.40257,35.69346,0
            139.40253,35.69347,0
            139.4025,35.69349,0
            139.40247,35.69352,0
            139.40242,35.69355,0
            139.40235,35.69358,0
            139.40232,35.6936,0
            139.4023,35.69361,0
            139.40225,35.69363,0
            139.4022,35.69363,0
            139.40218,35.69363,0
            139.402,35.69363,0
            139.40191,35.69363,0
            139.40184,35.69364,0
            139.40181,35.69364,0
            139.40174,35.69363,0
            139.40167,35.69362,0
            139.4016,35.69361,0
            139.40156,35.69355,0
            139.40144,35.69332,0
            139.40143,35.69329,0
            139.40142,35.69326,0
            139.4014,35.6932,0
            139.40139,35.69316,0
            139.40137,35.69311,0
            139.40136,35.69308,0
            139.40134,35.69305,0
            139.40133,35.69304,0
            139.40131,35.69302,0
            139.40128,35.69299,0
            139.40124,35.69294,0
            139.40124,35.69293,0
            139.40123,35.69292,0
            139.40123,35.69291,0
            139.40122,35.69286,0
            139.40123,35.69285,0
            139.40123,35.69284,0
            139.40124,35.69283,0
            139.40127,35.69281,0
            139.40129,35.6928,0
            139.40131,35.6928,0
            139.40149,35.69273,0
            139.40147,35.69269,0
            139.40141,35.6926,0
            139.40137,35.69253,0
            139.40135,35.69248,0
            139.40137,35.69246,0
            139.40142,35.69244,0
            139.40155,35.6924,0
            139.40157,35.6924,0
            139.40186,35.6923,0
            139.40188,35.6923,0
            139.40189,35.6923,0
            139.40192,35.69229,0
            139.40192,35.69228,0
            139.40191,35.69227,0
            139.40187,35.69217,0
            139.40185,35.69212,0
            139.40184,35.6921,0
            139.40182,35.69208,0
            139.4018,35.69207,0
            139.40179,35.69207,0
            139.40178,35.69206,0
            139.40179,35.69203,0
            139.40181,35.69203,0
            139.40182,35.69204,0
            139.40184,35.69205,0
            139.40185,35.69206,0
            139.40182,35.69208,0
            139.4018,35.69207,0
            139.40179,35.69207,0
            139.40178,35.69206,0
            139.40179,35.69202,0
            139.40179,35.69201,0
            139.40178,35.69196,0
            139.40177,35.69191,0
            139.40175,35.69187,0
            139.40172,35.69179,0
            139.40171,35.69177,0
            139.4017,35.69172,0
            139.40169,35.69172,0
            139.40162,35.69161,0
            139.40154,35.69157,0
            139.40151,35.69153,0
            139.40162,35.69147,0
            139.4018,35.69137,0
            139.40182,35.69136,0
            139.40183,35.69135,0
            139.40184,35.69135,0
            139.40184,35.69134,0
            139.40184,35.69133,0
            139.40184,35.69132,0
            139.40184,35.69131,0
            139.40184,35.6913,0
            139.40179,35.69122,0
            139.40178,35.69118,0
            139.40178,35.69116,0
            139.40177,35.69113,0
            139.40176,35.6911,0
            139.40205,35.691,0
            139.40208,35.69101,0
            139.40207,35.69103,0
            139.40177,35.69114,0
            139.4017,35.69112,0
            139.40168,35.69112,0
            139.40167,35.69112,0
            139.40165,35.69112,0
            139.40163,35.69111,0
            139.4016,35.69111,0
            139.40157,35.69111,0
            139.40153,35.69113,0
            139.40128,35.69127,0
            139.40115,35.69135,0
            139.4011,35.69138,0
            139.40108,35.69137,0
            139.40107,35.69136,0
            139.40106,35.69136,0
            139.40105,35.69136,0
            139.40104,35.69135,0
            139.401,35.69132,0
            139.40098,35.69131,0
            139.40097,35.6913,0
            139.40095,35.69129,0
            139.40094,35.69129,0
            139.40089,35.69132,0
            139.40086,35.69134,0
            139.40086,35.69135,0
            139.40083,35.69135,0
            139.40082,35.69135,0
            139.40081,35.69136,0
            139.4008,35.69137,0
            139.40079,35.69138,0
            139.40074,35.69145,0
            139.4007,35.6915,0
            139.40062,35.69163,0
            139.40061,35.69164,0
            139.40059,35.69165,0
            139.40058,35.69167,0
            139.40058,35.69168,0
            139.40057,35.69168,0
            139.40056,35.69168,0
            139.40055,35.69168,0
            139.40054,35.69168,0
            139.40053,35.69168,0
            139.40052,35.69165,0
            139.40048,35.69161,0
            139.40047,35.69163,0
            139.40035,35.69175,0
            139.40029,35.6918,0
            139.40022,35.69189,0
            139.40021,35.6919,0
            139.40016,35.69197,0
            139.40012,35.69202,0
            139.40011,35.69205,0
            139.40001,35.69222,0
            139.39992,35.69238,0
            139.39991,35.6924,0
            139.39983,35.69254,0
            139.39979,35.69258,0
            139.39984,35.69263,0
            139.3998,35.69268,0
            139.3998,35.6927,0
            139.39979,35.69272,0
            139.39979,35.69273,0
            139.39977,35.69278,0
            139.39974,35.6929,0
            139.39972,35.69296,0
            139.39968,35.69309,0
            139.39967,35.69312,0
            139.39965,35.69315,0
            139.39958,35.69326,0
            139.39955,35.69332,0
            139.39954,35.69335,0
            139.39952,35.69339,0
            139.39952,35.69342,0
            139.3995,35.69345,0
            139.39949,35.69347,0
            139.39948,35.69348,0
            139.39941,35.69358,0
            139.3994,35.69359,0
            139.3994,35.6936,0
            139.39939,35.69362,0
            139.39939,35.69363,0
            139.39935,35.69367,0
            139.39934,35.69369,0
            139.39937,35.69371,0
            139.39937,35.69372,0
            139.39937,35.69373,0
            139.39937,35.69374,0
            139.39933,35.69377,0
            139.39928,35.69383,0
            139.39926,35.69385,0
            139.39923,35.69388,0
            139.39912,35.694,0
            139.39911,35.69403,0
            139.39908,35.69405,0
            139.39906,35.69406,0
            139.39903,35.69408,0
            139.39901,35.69409,0
            139.39895,35.69413,0
            139.39891,35.69416,0
            139.3989,35.69417,0
            139.39889,35.69418,0
            139.39887,35.6942,0
            139.39884,35.69423,0
            139.39874,35.69434,0
            139.39865,35.69443,0
            139.39861,35.69448,0
            139.39855,35.69454,0
            139.39847,35.69464,0
            139.39823,35.69492,0
            139.39822,35.69493,0
            139.39821,35.69494,0
            139.39816,35.695,0
            139.39803,35.6952,0
            139.39802,35.69522,0
            139.398,35.69524,0
            139.39798,35.69525,0
            139.39793,35.69529,0
            139.39788,35.69534,0
            139.39786,35.69536,0
            139.39785,35.69538,0
            139.39782,35.6954,0
            139.39778,35.69546,0
            139.39775,35.6955,0
            139.39773,35.69554,0
            139.39771,35.69558,0
            139.3977,35.69561,0
            139.39769,35.69565,0
            139.39768,35.69568,0
            139.39768,35.69569,0
            139.39768,35.6957,0
            139.39768,35.69571,0
            139.39768,35.69572,0
            139.3977,35.69577,0
            139.39771,35.69581,0
            139.39774,35.69587,0
            139.39769,35.69591,0
            139.3976,35.696,0
            139.39755,35.69595,0
            139.39752,35.69592,0
            139.3975,35.69589,0
            139.39749,35.69584,0
            139.39748,35.69581,0
            139.39745,35.69577,0
            139.39741,35.69573,0
            139.39736,35.6957,0
            139.39731,35.69566,0
            139.3973,35.69565,0
            139.39727,35.69563,0
            139.3972,35.69558,0
            139.39712,35.69554,0
            139.39708,35.69553,0
            139.39706,35.69552,0
            139.39705,35.69552,0
            139.39705,35.6955,0
            139.39706,35.69549,0
            139.39708,35.69547,0
            139.39711,35.69546,0
            139.39709,35.69544,0
            139.39706,35.69539,0
            139.39693,35.69521,0
            139.39689,35.69522,0
            139.39687,35.69522,0
            139.39682,35.6952,0
            139.39672,35.69517,0
            139.39666,35.69516,0
            139.39654,35.69513,0
            139.39651,35.69512,0
            139.3964,35.6951,0
            139.39628,35.69507,0
            139.3962,35.69504,0
            139.39611,35.695,0
            139.39601,35.69491,0
            139.39596,35.69486,0
            139.39592,35.69486,0
            139.39589,35.69485,0
            139.39586,35.69484,0
            139.39581,35.69484,0
            139.3955,35.69479,0
            139.39545,35.69478,0
            139.39537,35.69477,0
            139.39536,35.69477,0
            139.39529,35.69478,0
            139.39527,35.6948,0
            139.39521,35.69481,0
            139.39518,35.69485,0
            139.39511,35.69494,0
            139.39511,35.69495,0
            139.3951,35.69495,0
            139.39506,35.69495,0
            139.39483,35.69496,0
            139.39451,35.69498,0
            139.39449,35.69498,0
            139.39436,35.695,0
            139.39435,35.69502,0
            139.39439,35.69511,0
            139.39441,35.69515,0
            139.39441,35.69516,0
            139.39441,35.69517,0
            139.39441,35.69518,0
            139.3944,35.69518,0
            139.39439,35.69519,0
            139.39438,35.6952,0
            139.39437,35.6952,0
            139.39435,35.69521,0
            139.39433,35.69522,0
            139.39432,35.69522,0
            139.39431,35.69522,0
            139.3943,35.69521,0
            139.39429,35.69521,0
            139.39428,35.6952,0
            139.39427,35.6952,0
            139.39423,35.69511,0
            139.39422,35.69507,0
            139.39418,35.69505,0
            139.39408,35.69504,0
            139.39392,35.69503,0
            139.39386,35.69502,0
            139.39385,35.69502,0
            139.39371,35.69501,0
            139.39354,35.69499,0
            139.39349,35.69498,0
            139.39344,35.69498,0
            139.39338,35.69497,0
            139.39335,35.69497,0
            139.39325,35.69497,0
            139.39318,35.69498,0
            139.393,35.695,0
            139.39299,35.69503,0
            139.39287,35.69504,0
            139.39284,35.69504,0
            139.39283,35.69504,0
            139.39281,35.69503,0
            139.39273,35.69499,0
            139.39272,35.69499,0
            139.3927,35.69498,0
            139.39268,35.69498,0
            139.39265,35.69498,0
            139.3926,35.69498,0
            139.39254,35.69498,0
            139.39251,35.69498,0
            139.39249,35.69499,0
            139.3924,35.695,0
            139.39239,35.695,0
            139.39227,35.69502,0
            139.39208,35.69505,0
            139.39204,35.69506,0
            139.39201,35.69506,0
            139.39173,35.69513,0
            139.3917,35.69514,0
            139.3916,35.69516,0
            139.39154,35.69517,0
            139.39117,35.69515,0
            139.39109,35.69515,0
            139.39068,35.69514,0
            139.39064,35.69514,0
            139.39065,35.69519,0
            139.3907,35.69534,0
            139.3907,35.69536,0
            139.39067,35.69537,0
            139.39053,35.69542,0
            139.39052,35.69548,0
            139.3905,35.69559,0
            139.39049,35.69564,0
            139.39046,35.69583,0
            139.39045,35.6959,0
            139.39044,35.69591,0
            139.39044,35.69593,0
            139.39036,35.69607,0
            139.39036,35.69609,0
            139.39034,35.69624,0
            139.39033,35.69629,0
            139.39032,35.69635,0
            139.39032,35.69648,0
            139.3903,35.69654,0
            139.39029,35.6967,0
            139.39029,35.69673,0
            139.39029,35.69676,0
            139.3903,35.69677,0
            139.3903,35.69678,0
            139.3903,35.69679,0
            139.39031,35.6968,0
            139.39033,35.69683,0
            139.39041,35.69686,0
            139.39046,35.69688,0
            139.39048,35.69688,0
            139.39053,35.6969,0
            139.39061,35.69692,0
            139.39064,35.69693,0
            139.39066,35.69694,0
            139.39069,35.69695,0
            139.39074,35.69698,0
            139.391,35.69715,0
            139.39104,35.69718,0
            139.39105,35.6972,0
            139.39108,35.69723,0
            139.39112,35.69726,0
            139.39116,35.69728,0
            139.39141,35.69745,0
            139.39151,35.69751,0
            139.39153,35.69752,0
            139.39157,35.69754,0
            139.39168,35.69759,0
            139.39172,35.69761,0
            139.39175,35.69762,0
            139.39183,35.69765,0
            139.39192,35.69768,0
            139.39199,35.69769,0
            139.39204,35.6977,0
            139.39206,35.69771,0
            139.39207,35.69771,0
            139.39208,35.69772,0
            139.39209,35.69772,0
            139.3921,35.69773,0
            139.39211,35.69775,0
            139.3922,35.69775,0
            139.39226,35.69775,0
            139.39229,35.69775,0
            139.39231,35.69775,0
            139.39233,35.69776,0
            139.39234,35.69776,0
            139.39236,35.69776,0
            139.39237,35.69776,0
            139.39239,35.69777,0
            139.3924,35.69777,0
            139.39241,35.69778,0
            139.39242,35.69779,0
            139.39243,35.69779,0
            139.39244,35.6978,0
            139.39244,35.69781,0
            139.39245,35.69782,0
            139.3925,35.69782,0
            139.39274,35.69778,0
            139.39281,35.69778,0
            139.39288,35.69777,0
            139.39294,35.69776,0
            139.39347,35.69769,0
            139.39355,35.69767,0
            139.39361,35.69767,0
            139.39366,35.69767,0
            139.39369,35.69766,0
            139.39373,35.69766,0
            139.39376,35.69765,0
            139.39378,35.69764,0
            139.39381,35.69763,0
            139.39387,35.6976,0
            139.39392,35.69758,0
            139.39401,35.69753,0
            139.39405,35.6975,0
            139.3945,35.69713,0
            139.39455,35.69707,0
            139.39458,35.69705,0
            139.39463,35.69702,0
            139.39468,35.69699,0
            139.39473,35.69696,0
            139.39476,35.69694,0
            139.39479,35.69693,0
            139.39484,35.69692,0
            139.39488,35.6969,0
            139.39502,35.69686,0
            139.39509,35.69684,0
            139.39516,35.69683,0
            139.39519,35.69688,0
            139.39536,35.69725,0
            139.39539,35.69731,0
            139.39552,35.69758,0
            139.39552,35.6976,0
            139.39554,35.69764,0
            139.39571,35.69801,0
            139.39575,35.6981,0
            139.39579,35.69817,0
            139.39581,35.69821,0
            139.39584,35.69829,0
            139.39586,35.69834,0
            139.39591,35.69839,0
            139.39589,35.69844,0
            139.39594,35.69861,0
            139.39595,35.69864,0
            139.39598,35.6987,0
            139.39597,35.69872,0
            139.39599,35.69883,0
            139.39603,35.69897,0
            139.39613,35.69931,0
            139.39618,35.69951,0
            139.39622,35.69964,0
            139.39626,35.69971,0
            139.39626,35.69979,0
            139.39628,35.69987,0
            139.39629,35.69991,0
            139.39631,35.69998,0
            139.39632,35.70002,0
            139.39637,35.70018,0
            139.3964,35.70024,0
            139.39639,35.70027,0
            139.39643,35.7004,0
            139.39647,35.70053,0
            139.39653,35.70075,0
            139.39654,35.70081,0
            139.39661,35.70104,0
            139.39638,35.70112,0
            139.39631,35.70115,0
            139.3962,35.70119,0
            139.39618,35.70121,0
            139.39582,35.70133,0
            139.39568,35.70138,0
            139.39561,35.7014,0
            139.39544,35.70146,0
            139.39524,35.70153,0
            139.39504,35.7016,0
            139.39483,35.70167,0
            139.39477,35.70169,0
            139.39464,35.70172,0
            139.3945,35.70177,0
            139.39449,35.70179,0
            139.39436,35.70183,0
            139.3943,35.70185,0
            139.39425,35.70187,0
            139.39422,35.70188,0
            139.3942,35.70188,0
            139.39418,35.70188,0
            139.39416,35.70188,0
            139.39412,35.70189,0
            139.39406,35.70188,0
            139.39406,35.70194,0
            139.39401,35.70197,0
            139.39393,35.702,0
            139.39396,35.70204,0
            139.39398,35.70211,0
            139.39405,35.70232,0
            139.39406,35.70233,0
            139.39407,35.70237,0
            139.39416,35.70258,0
            139.39417,35.70261,0
            139.39424,35.70278,0
            139.39432,35.70301,0
            139.39433,35.70305,0
            139.39429,35.70306,0
            139.39422,35.70307,0
            139.39409,35.70309,0
            139.39394,35.70311,0
            139.39376,35.70314,0
            139.39373,35.70315,0
            139.39379,35.70328,0
            139.3938,35.7033,0
            139.39359,35.70337,0
            139.39365,35.70349,0
            139.39371,35.70354,0
            139.39374,35.70359,0
          </coordinates>
        </LineString>
      </Placemark>
      <Placemark>
        <name>東京都立川市曙町２丁目１ 立川駅</name>
        <styleUrl>#icon-1899-DB4436-nodesc</styleUrl>
        <Point>
          <coordinates>
            139.4137811,35.6982598,0
          </coordinates>
        </Point>
      </Placemark>
      <Placemark>
        <name>東京都立川市緑町 西立川駅</name>
        <styleUrl>#icon-1899-DB4436-nodesc</styleUrl>
        <Point>
          <coordinates>
            139.3937401,35.7035948,0
          </coordinates>
        </Point>
      </Placemark>
    </Folder>
    <Folder>
      <name>立川の古村を歩く</name>
      <Placemark>
        <name>諏訪神社</name>
        <styleUrl>#icon-seq2-1-0-0288D1-labelson-nodesc</styleUrl>
        <Point>
          <coordinates>
            139.4060522,35.6953828,0
          </coordinates>
        </Point>
      </Placemark>
      <Placemark>
        <name>中嶋家の門</name>
        <styleUrl>#icon-seq2-1-1-0288D1-labelson-nodesc</styleUrl>
        <Point>
          <coordinates>
            139.4043548,35.6936446,0
          </coordinates>
        </Point>
      </Placemark>
      <Placemark>
        <name>八幡神社大欅</name>
        <styleUrl>#icon-seq2-1-2-0288D1-labelson-nodesc</styleUrl>
        <Point>
          <coordinates>
            139.4035975,35.693906,0
          </coordinates>
        </Point>
      </Placemark>
      <Placemark>
        <name>八幡神社本殿跡</name>
        <styleUrl>#icon-seq2-1-3-0288D1-labelson-nodesc</styleUrl>
        <Point>
          <coordinates>
            139.4037765,35.6944078,0
          </coordinates>
        </Point>
      </Placemark>
      <Placemark>
        <name>満願寺跡</name>
        <styleUrl>#icon-seq2-1-4-0288D1-labelson-nodesc</styleUrl>
        <Point>
          <coordinates>
            139.4033531,35.6936004,0
          </coordinates>
        </Point>
      </Placemark>
      <Placemark>
        <name>柴崎分水</name>
        <styleUrl>#icon-seq2-1-5-0288D1-labelson-nodesc</styleUrl>
        <Point>
          <coordinates>
            139.4022723,35.6935719,0
          </coordinates>
        </Point>
      </Placemark>
      <Placemark>
        <name>普済寺</name>
        <styleUrl>#icon-seq2-1-6-0288D1-labelson-nodesc</styleUrl>
        <Point>
          <coordinates>
            139.4017873,35.6907163,0
          </coordinates>
        </Point>
      </Placemark>
      <Placemark>
        <name>山中坂地蔵堂</name>
        <styleUrl>#icon-seq2-1-7-0288D1-labelson-nodesc</styleUrl>
        <Point>
          <coordinates>
            139.3989115,35.6941069,0
          </coordinates>
        </Point>
      </Placemark>
      <Placemark>
        <name>田中冬ニ詩碑</name>
        <styleUrl>#icon-seq2-1-8-0288D1-labelson-nodesc</styleUrl>
        <Point>
          <coordinates>
            139.3970348,35.6955297,0
          </coordinates>
        </Point>
      </Placemark>
      <Placemark>
        <name>筑水（鈴木貞治）句碑</name>
        <styleUrl>#icon-seq2-1-9-0288D1-labelson-nodesc</styleUrl>
        <Point>
          <coordinates>
            139.3902173,35.6965644,0
          </coordinates>
        </Point>
      </Placemark>
      <Placemark>
        <name>立川市歴史民俗資料館</name>
        <styleUrl>#icon-seq2-1-10-0288D1-labelson-nodesc</styleUrl>
        <Point>
          <coordinates>
            139.3899686,35.6969524,0
          </coordinates>
        </Point>
      </Placemark>
      <Placemark>
        <name>谷川水車・やまやのぎく句碑</name>
        <styleUrl>#icon-seq2-1-11-0288D1-labelson-nodesc</styleUrl>
        <Point>
          <coordinates>
            139.3914175,35.6975457,0
          </coordinates>
        </Point>
      </Placemark>
      <Placemark>
        <name>東京都農林総合研究センター</name>
        <styleUrl>#icon-seq2-1-12-0288D1-labelson-nodesc</styleUrl>
        <Point>
          <coordinates>
            139.3927225,35.6985473,0
          </coordinates>
        </Point>
      </Placemark>
      <Placemark>
        <name>高村光太郎詩碑</name>
        <styleUrl>#icon-seq2-1-13-0288D1-labelson-nodesc</styleUrl>
        <Point>
          <coordinates>
            139.3937269,35.6975274,0
          </coordinates>
        </Point>
      </Placemark>
      <Placemark>
        <name>富士塚</name>
        <description><![CDATA[JR青梅線西立川駅の東南、西立川学童保育所のそばにある大きな塚が富士塚です。<br><br>塚の頂上には浅間神社が祀られています。<br>富士塚は富士浅間神社の神を祀り、江戸時代中期に「江戸八百八講」といわれて隆盛をきわめた富士講（富士山に対する信仰）の人々により築かれました。<br><br>富士山に登り、参拝することのできない人々が、富士山の代わりとしたのです。<br>江戸時代の検地帳の中には「ふじ塚」という名が見えます。<br><br>富士塚の由来については、この塚の頂上から富士がよく見えることから富士塚と呼ばれるようになったのではないかという説もあります。]]></description>
        <styleUrl>#icon-seq2-1-14-0288D1-labelson</styleUrl>
        <Point>
          <coordinates>
            139.396323,35.7014438,0
          </coordinates>
        </Point>
      </Placemark>
    </Folder>
  </Document>
</kml>
