{
"type": "FeatureCollection",
"name": "route_fix",
"crs": { "type": "name", "properties": { "name": "urn:ogc:def:crs:OGC:1.3:CRS84" } },
"features": [
{ "type": "Feature", "properties": { "name": "立川駅〜西立川駅", "styleUrl": "#line-1267FF-5000-nodesc", "stroke-opacity": 1, "stroke": "#1267ff", "stroke-width": 5 }, "geometry": { "type": "LineString", "coordinates": [ [ 139.413793362325492, 35.697982850489169 ], [ 139.413789769012624, 35.69726418790173 ], [ 139.413570576923263, 35.697233644741708 ], [ 139.413015410074479, 35.697231848085238 ], [ 139.412982621094102, 35.697000079400858 ], [ 139.41288200833182, 35.697052182438441 ], [ 139.412239471153867, 35.697215835499186 ], [ 139.410567016472072, 35.697655859011903 ], [ 139.410355460172894, 35.697649570714262 ], [ 139.410143454709555, 35.697568721173184 ], [ 139.409982653955637, 35.697414208716879 ], [ 139.409599966127843, 35.69710518380429 ], [ 139.408874116914546, 35.696472760727346 ], [ 139.408562397017249, 35.696214042195862 ], [ 139.408023400076672, 35.695563652554249 ], [ 139.407381095389127, 35.69522408448168 ], [ 139.406742384014564, 35.694857566562085 ], [ 139.406231235249152, 35.694375164300176 ], [ 139.405250260817326, 35.693890067053665 ], [ 139.404654669198067, 35.693625060224662 ], [ 139.404460181135363, 35.693565770561179 ], [ 139.404045153491126, 35.693599907034084 ], [ 139.403902319301864, 35.693802929215032 ], [ 139.403902319301864, 35.694144293944056 ], [ 139.403959812308841, 35.694516201833068 ], [ 139.403796316570237, 35.694573694840052 ], [ 139.403535801382247, 35.694065241059448 ], [ 139.403607667640983, 35.694014934678329 ], [ 139.403537598038753, 35.693896355351413 ], [ 139.4032, 35.69326 ], [ 139.40259, 35.69344 ], [ 139.40225, 35.69363 ], [ 139.4016, 35.69361 ], [ 139.401478629725744, 35.693369935006089 ], [ 139.401399576841129, 35.69311121647462 ], [ 139.40122, 35.69286 ], [ 139.40149, 35.69273 ], [ 139.401379813619911, 35.692482386710616 ], [ 139.401943963751052, 35.692306314376687 ], [ 139.401805621202953, 35.692020645998191 ], [ 139.401422933375216, 35.692142818638047 ], [ 139.401236081102468, 35.691876913480698 ], [ 139.400852045782273, 35.691344204837669 ], [ 139.400748738035304, 35.691494225652811 ], [ 139.400571767373208, 35.691686467876828 ], [ 139.400466662969791, 35.691579566835152 ], [ 139.400305862215873, 35.691739469260867 ], [ 139.399796510107052, 35.692564134579946 ], [ 139.399864783052863, 35.692661154029238 ], [ 139.399817171656395, 35.692709663753902 ], [ 139.399668049169435, 35.69318308273337 ], [ 139.399384177447388, 35.693711299735114 ], [ 139.399120068946502, 35.694036494555931 ], [ 139.398917945093757, 35.694171243791082 ], [ 139.398661921546989, 35.694449725543713 ], [ 139.398267555452122, 35.694889906378521 ], [ 139.398025905157141, 35.695224084481666 ], [ 139.39783995121266, 35.695412733388594 ], [ 139.397757305015062, 35.695540296020141 ], [ 139.397693972874549, 35.695698401789365 ], [ 139.397760449163911, 35.695845727619798 ], [ 139.397729906003946, 35.695890644031508 ], [ 139.397583029337682, 35.695742419872794 ], [ 139.397455017564226, 35.695588805744777 ], [ 139.397174289991, 35.695498074593068 ], [ 139.397079965526387, 35.695406445113179 ], [ 139.396928148054826, 35.695160303176976 ], [ 139.39687694334549, 35.695195787142275 ], [ 139.396129534254555, 35.694996358274274 ], [ 139.395957953561805, 35.694828370894456 ], [ 139.395253664226118, 35.694734046429843 ], [ 139.395061421983996, 35.694956831831973 ], [ 139.394361624289473, 35.695013875674839 ], [ 139.394201721863737, 35.695067775368898 ], [ 139.393862153791218, 35.695062385399488 ], [ 139.393373463231768, 35.694997705766625 ], [ 139.392907230878166, 35.695033638895993 ], [ 139.392700615384285, 35.694972552576061 ], [ 139.392337690777595, 35.694970755919584 ], [ 139.391964884560394, 35.695030943911249 ], [ 139.391602858281942, 35.695141438284097 ], [ 139.39064, 35.69514 ], [ 139.390690156795927, 35.695342663808574 ], [ 139.390515881118461, 35.695414530067325 ], [ 139.390444014859753, 35.695901423970305 ], [ 139.390358203343482, 35.696073593305577 ], [ 139.39029, 35.6967 ], [ 139.39033, 35.69683 ], [ 139.39069, 35.69695 ], [ 139.391103387783744, 35.697274069512304 ], [ 139.391552033435318, 35.697572339873247 ], [ 139.392082565559122, 35.697748386820017 ], [ 139.392449083478681, 35.69781665976582 ], [ 139.393115643028551, 35.697737606881205 ], [ 139.39376, 35.69765 ], [ 139.39401, 35.69753 ], [ 139.394768566979621, 35.69695426466091 ], [ 139.395224019394391, 35.696838380318631 ], [ 139.395939088668911, 35.698369131629846 ], [ 139.396054074682866, 35.698875788754002 ], [ 139.396640683019996, 35.701072201286877 ], [ 139.393951312868552, 35.70198939441412 ], [ 139.39433, 35.70305 ], [ 139.39373, 35.70315 ], [ 139.3938, 35.7033 ], [ 139.393607028572688, 35.703362039956055 ], [ 139.393666318236143, 35.703510264114698 ] ] } }
]
}
