{"type": "FeatureCollection","features": [
{"type": "Feature","properties":{"time":"2025-07-01T03:35:41.026Z","provider":"gps","time_long":1751340941026,"accuracy":33.71691,"altitude":143.7327057870574,"speed":0.0},"geometry":{"type":"Point","coordinates":[139.42279460048545,35.72054395395555]}}
,{"type": "Feature","properties":{"time":"2025-07-01T03:35:47.000Z","provider":"gps","time_long":1751340947000,"accuracy":4.2864146,"altitude":132.9990423001415,"speed":0.0},"geometry":{"type":"Point","coordinates":[139.423018871521,35.72047113240765]}}
,{"type": "Feature","properties":{"time":"2025-07-01T03:35:53.846Z","provider":"network","time_long":1751340953846,"accuracy":22.274,"altitude":132.10000610351562},"geometry":{"type":"Point","coordinates":[139.4230155,35.7205552]}}
,{"type": "Feature","properties":{"time":"2025-07-01T03:35:58.000Z","provider":"gps","time_long":1751340958000,"accuracy":2.228054,"altitude":128.53945645277966,"bearing":153.48055,"speed":4.4261637},"geometry":{"type":"Point","coordinates":[139.42299853720584,35.72035288524596]}}
,{"type": "Feature","properties":{"time":"2025-07-01T03:36:04.000Z","provider":"gps","time_long":1751340964000,"accuracy":1.287309,"altitude":127.79612048858989,"bearing":159.43535,"speed":5.979876},"geometry":{"type":"Point","coordinates":[139.42312364737245,35.72006741403406]}}
,{"type": "Feature","properties":{"time":"2025-07-01T03:36:10.000Z","provider":"gps","time_long":1751340970000,"accuracy":0.9385137,"altitude":127.63449969657442,"bearing":168.91124,"speed":6.664306},"geometry":{"type":"Point","coordinates":[139.4232408435304,35.7197340217548]}}
,{"type": "Feature","properties":{"time":"2025-07-01T03:36:16.000Z","provider":"gps","time_long":1751340976000,"accuracy":0.77932906,"altitude":127.61808243657774,"bearing":168.27264,"speed":6.9622188},"geometry":{"type":"Point","coordinates":[139.42333276084292,35.71936763689085]}}
,{"type": "Feature","properties":{"time":"2025-07-01T03:36:22.000Z","provider":"gps","time_long":1751340982000,"accuracy":0.68136173,"altitude":127.89738311315458,"bearing":168.75702,"speed":6.5417485},"geometry":{"type":"Point","coordinates":[139.42342485684864,35.71900086825527]}}
,{"type": "Feature","properties":{"time":"2025-07-01T03:36:27.999Z","provider":"gps","time_long":1751340987999,"accuracy":0.6198975,"altitude":128.16527584790956,"bearing":169.92908,"speed":5.7354817},"geometry":{"type":"Point","coordinates":[139.42350052410552,35.718676751004686]}}
,{"type": "Feature","properties":{"time":"2025-07-01T03:36:33.999Z","provider":"gps","time_long":1751340993999,"accuracy":2.2763045,"altitude":128.16456249547838,"bearing":168.36104,"speed":3.9588194},"geometry":{"type":"Point","coordinates":[139.42355633141148,35.71839742246408]}}
,{"type": "Feature","properties":{"time":"2025-07-01T03:36:57.999Z","provider":"gps","time_long":1751341017999,"accuracy":2.2953901,"altitude":130.64020247583917,"bearing":152.16693,"speed":4.7042556},"geometry":{"type":"Point","coordinates":[139.42363356109934,35.71821096921517]}}
,{"type": "Feature","properties":{"time":"2025-07-01T03:37:06.609Z","provider":"network","time_long":1751341026609,"accuracy":25.894,"altitude":131.20001220703125},"geometry":{"type":"Point","coordinates":[139.4235401,35.7180188]}}
,{"type": "Feature","properties":{"time":"2025-07-01T03:37:09.999Z","provider":"gps","time_long":1751341029999,"accuracy":2.629959,"altitude":127.29183632783901,"bearing":160.17189,"speed":6.600542},"geometry":{"type":"Point","coordinates":[139.42395769932796,35.71759214369699]}}
,{"type": "Feature","properties":{"time":"2025-07-01T03:37:15.999Z","provider":"gps","time_long":1751341035999,"accuracy":2.63277,"altitude":127.16323909088713,"bearing":160.10121,"speed":5.880255},"geometry":{"type":"Point","coordinates":[139.42409596989674,35.71726490511812]}}
,{"type": "Feature","properties":{"time":"2025-07-01T03:37:21.999Z","provider":"gps","time_long":1751341041999,"accuracy":2.5853586,"altitude":129.03880681714216,"bearing":156.3282,"speed":6.9094906},"geometry":{"type":"Point","coordinates":[139.42428926818607,35.71690945824825]}}
,{"type": "Feature","properties":{"time":"2025-07-01T03:37:27.999Z","provider":"gps","time_long":1751341047999,"accuracy":2.3275065,"altitude":126.30522846374717,"bearing":155.50926,"speed":7.295021},"geometry":{"type":"Point","coordinates":[139.42448392710213,35.716561835425054]}}
,{"type": "Feature","properties":{"time":"2025-07-01T03:37:33.999Z","provider":"gps","time_long":1751341053999,"accuracy":2.5599074,"altitude":127.12786436878075,"bearing":152.78557,"speed":7.3655057},"geometry":{"type":"Point","coordinates":[139.42470578399332,35.71619233151732]}}
,{"type": "Feature","properties":{"time":"2025-07-01T03:37:40.999Z","provider":"gps","time_long":1751341060999,"accuracy":1.7230122,"altitude":126.01309716531838,"bearing":153.99907,"speed":7.658992},"geometry":{"type":"Point","coordinates":[139.42494215743886,35.71576740427118]}}
,{"type": "Feature","properties":{"time":"2025-07-01T03:37:46.999Z","provider":"gps","time_long":1751341066999,"accuracy":1.7151456,"altitude":126.17387183819967,"bearing":153.35573,"speed":7.458782},"geometry":{"type":"Point","coordinates":[139.42516059319703,35.715405583559246]}}
,{"type": "Feature","properties":{"time":"2025-07-01T03:37:52.999Z","provider":"gps","time_long":1751341072999,"accuracy":1.0833598,"altitude":126.58110451483228,"bearing":155.45348,"speed":7.331692},"geometry":{"type":"Point","coordinates":[139.42537649564525,35.7150373721086]}}
,{"type": "Feature","properties":{"time":"2025-07-01T03:37:58.999Z","provider":"gps","time_long":1751341078999,"accuracy":2.3752651,"altitude":126.38733145616102,"bearing":153.24098,"speed":7.4904194},"geometry":{"type":"Point","coordinates":[139.42559417806117,35.714680723092535]}}
,{"type": "Feature","properties":{"time":"2025-07-01T03:38:04.999Z","provider":"gps","time_long":1751341084999,"accuracy":2.314319,"altitude":125.17613951891053,"bearing":151.7148,"speed":6.586086},"geometry":{"type":"Point","coordinates":[139.4258048945589,35.71433660547752]}}
,{"type": "Feature","properties":{"time":"2025-07-01T03:38:10.999Z","provider":"gps","time_long":1751341090999,"accuracy":2.3427145,"altitude":124.29079848718466,"bearing":153.2749,"speed":6.340657},"geometry":{"type":"Point","coordinates":[139.42600469815363,35.71400850188373]}}
,{"type": "Feature","properties":{"time":"2025-07-01T03:38:16.999Z","provider":"gps","time_long":1751341096999,"accuracy":2.5155542,"altitude":127.53142552320541,"bearing":154.09074,"speed":6.4402695},"geometry":{"type":"Point","coordinates":[139.42619422506922,35.713697146052674]}}
,{"type": "Feature","properties":{"time":"2025-07-01T03:38:22.999Z","provider":"gps","time_long":1751341102999,"accuracy":2.532196,"altitude":124.93983639965904,"bearing":155.89236,"speed":5.348426},"geometry":{"type":"Point","coordinates":[139.42637253787487,35.71339440029084]}}
,{"type": "Feature","properties":{"time":"2025-07-01T03:38:28.999Z","provider":"gps","time_long":1751341108999,"accuracy":3.0479918,"altitude":126.6465883285351,"bearing":149.45518,"speed":0.0},"geometry":{"type":"Point","coordinates":[139.42645886534788,35.71324538404527]}}
,{"type": "Feature","properties":{"time":"2025-07-01T03:38:34.999Z","provider":"gps","time_long":1751341114999,"accuracy":3.172346,"altitude":128.7476763292489,"bearing":150.6969,"speed":3.580318},"geometry":{"type":"Point","coordinates":[139.426506238472,35.71317312766247]}}
,{"type": "Feature","properties":{"time":"2025-07-01T03:38:40.999Z","provider":"gps","time_long":1751341120999,"accuracy":3.0500486,"altitude":132.07358852078096,"bearing":155.37141,"speed":5.97372},"geometry":{"type":"Point","coordinates":[139.42662180391432,35.71290989612367]}}
,{"type": "Feature","properties":{"time":"2025-07-01T03:38:46.999Z","provider":"gps","time_long":1751341126999,"accuracy":3.0916872,"altitude":129.10304663020221,"bearing":153.90108,"speed":6.015316},"geometry":{"type":"Point","coordinates":[139.42684625811341,35.71258907784682]}}
,{"type": "Feature","properties":{"time":"2025-07-01T03:38:52.999Z","provider":"gps","time_long":1751341132999,"accuracy":2.3645399,"altitude":123.7367720316461,"bearing":153.15985,"speed":5.9748726},"geometry":{"type":"Point","coordinates":[139.4270327106951,35.71226443051506]}}
,{"type": "Feature","properties":{"time":"2025-07-01T03:38:58.999Z","provider":"gps","time_long":1751341138999,"accuracy":2.4012723,"altitude":124.1772738438087,"bearing":154.22801,"speed":6.062608},"geometry":{"type":"Point","coordinates":[139.42720567025353,35.711966051101136]}}
,{"type": "Feature","properties":{"time":"2025-07-01T03:39:04.999Z","provider":"gps","time_long":1751341144999,"accuracy":2.4639235,"altitude":124.88845940456011,"bearing":151.60977,"speed":5.9393754},"geometry":{"type":"Point","coordinates":[139.4273684298632,35.71168232780431]}}
,{"type": "Feature","properties":{"time":"2025-07-01T03:39:10.999Z","provider":"gps","time_long":1751341150999,"accuracy":2.4834003,"altitude":125.36951713988918,"bearing":152.49326,"speed":5.530384},"geometry":{"type":"Point","coordinates":[139.4275478761367,35.711402980584595]}}
,{"type": "Feature","properties":{"time":"2025-07-01T03:39:16.999Z","provider":"gps","time_long":1751341156999,"accuracy":2.435745,"altitude":124.3043875270751,"bearing":155.0786,"speed":2.9332364},"geometry":{"type":"Point","coordinates":[139.42767719449967,35.71116927648496]}}
,{"type": "Feature","properties":{"time":"2025-07-01T03:39:46.999Z","provider":"gps","time_long":1751341186999,"accuracy":2.4239762,"altitude":129.36171805696702,"bearing":156.52905,"speed":4.0065374},"geometry":{"type":"Point","coordinates":[139.42775135439746,35.71102724753794]}}
,{"type": "Feature","properties":{"time":"2025-07-01T03:39:52.999Z","provider":"gps","time_long":1751341192999,"accuracy":2.45111,"altitude":125.69300530181731,"bearing":215.615,"speed":5.662216},"geometry":{"type":"Point","coordinates":[139.42773828563912,35.7107562605702]}}
,{"type": "Feature","properties":{"time":"2025-07-01T03:39:58.999Z","provider":"gps","time_long":1751341198999,"accuracy":2.510533,"altitude":122.22596233242493,"bearing":234.50984,"speed":4.9523506},"geometry":{"type":"Point","coordinates":[139.42745860746078,35.71055911633973]}}
,{"type": "Feature","properties":{"time":"2025-07-01T03:40:04.999Z","provider":"gps","time_long":1751341204999,"accuracy":2.6935215,"altitude":121.52562149487832,"bearing":233.09938,"speed":4.538117},"geometry":{"type":"Point","coordinates":[139.42719839812338,35.71040006047305]}}
,{"type": "Feature","properties":{"time":"2025-07-01T03:40:10.999Z","provider":"gps","time_long":1751341210999,"accuracy":2.398263,"altitude":120.81725308044825,"bearing":231.89667,"speed":0.4911313},"geometry":{"type":"Point","coordinates":[139.42708629396373,35.71031621752401]}}
,{"type": "Feature","properties":{"time":"2025-07-01T03:40:22.999Z","provider":"gps","time_long":1751341222999,"accuracy":2.4864173,"altitude":122.19225440468293,"bearing":240.11243,"speed":4.3186736},"geometry":{"type":"Point","coordinates":[139.42691774132908,35.71023443624118]}}
,{"type": "Feature","properties":{"time":"2025-07-01T03:40:28.999Z","provider":"gps","time_long":1751341228999,"accuracy":2.5266244,"altitude":121.86031240213713,"bearing":236.36687,"speed":6.222492},"geometry":{"type":"Point","coordinates":[139.42659199139175,35.71004312721621]}}
,{"type": "Feature","properties":{"time":"2025-07-01T03:40:34.999Z","provider":"gps","time_long":1751341234999,"accuracy":2.3866985,"altitude":121.99871989428468,"bearing":234.11052,"speed":5.5188184},"geometry":{"type":"Point","coordinates":[139.42627976034024,35.709831473218756]}}
,{"type": "Feature","properties":{"time":"2025-07-01T03:40:40.999Z","provider":"gps","time_long":1751341240999,"accuracy":2.3548744,"altitude":122.32235982660144,"bearing":234.24855,"speed":6.6499147},"geometry":{"type":"Point","coordinates":[139.42591400778912,35.70961550329375]}}
,{"type": "Feature","properties":{"time":"2025-07-01T03:40:46.999Z","provider":"gps","time_long":1751341246999,"accuracy":2.2779198,"altitude":122.34837105908298,"bearing":232.96292,"speed":6.7098064},"geometry":{"type":"Point","coordinates":[139.42554176793686,35.709393983010266]}}
,{"type": "Feature","properties":{"time":"2025-07-01T03:40:52.999Z","provider":"gps","time_long":1751341252999,"accuracy":2.4152737,"altitude":123.24633927672986,"bearing":233.55064,"speed":6.09849},"geometry":{"type":"Point","coordinates":[139.42518966229107,35.70919045496108]}}
,{"type": "Feature","properties":{"time":"2025-07-01T03:40:58.999Z","provider":"gps","time_long":1751341258999,"accuracy":2.3407907,"altitude":122.03066837766956,"bearing":237.84839,"speed":6.2770967},"geometry":{"type":"Point","coordinates":[139.42485719633913,35.70899344583022]}}
,{"type": "Feature","properties":{"time":"2025-07-01T03:41:05.000Z","provider":"gps","time_long":1751341265000,"accuracy":2.4733524,"altitude":122.11678884024855,"bearing":233.04051,"speed":5.7965426},"geometry":{"type":"Point","coordinates":[139.42452503576058,35.70877814224081]}}
,{"type": "Feature","properties":{"time":"2025-07-01T03:41:11.000Z","provider":"gps","time_long":1751341271000,"accuracy":2.3723128,"altitude":122.80617987488847,"bearing":232.75784,"speed":6.1476026},"geometry":{"type":"Point","coordinates":[139.42420434595917,35.70856973662499]}}
,{"type": "Feature","properties":{"time":"2025-07-01T03:41:17.000Z","provider":"gps","time_long":1751341277000,"accuracy":2.4109242,"altitude":124.58488784468403,"bearing":233.59637,"speed":5.439864},"geometry":{"type":"Point","coordinates":[139.42389850868483,35.7083862676284]}}
,{"type": "Feature","properties":{"time":"2025-07-01T03:41:23.000Z","provider":"gps","time_long":1751341283000,"accuracy":2.6386719,"altitude":125.10763082605588,"bearing":235.88115,"speed":5.1784167},"geometry":{"type":"Point","coordinates":[139.42358110555725,35.70821629773297]}}
,{"type": "Feature","properties":{"time":"2025-07-01T03:41:29.000Z","provider":"gps","time_long":1751341289000,"accuracy":2.4517963,"altitude":126.02180397478274,"bearing":231.20512,"speed":4.5615506},"geometry":{"type":"Point","coordinates":[139.42330970926474,35.70803104451358]}}
,{"type": "Feature","properties":{"time":"2025-07-01T03:41:35.000Z","provider":"gps","time_long":1751341295000,"accuracy":2.4386146,"altitude":122.59466262281799,"bearing":235.424,"speed":5.7024903},"geometry":{"type":"Point","coordinates":[139.4230225463283,35.70785091076078]}}
,{"type": "Feature","properties":{"time":"2025-07-01T03:41:41.000Z","provider":"gps","time_long":1751341301000,"accuracy":2.400488,"altitude":123.43408576529822,"bearing":235.25803,"speed":5.689242},"geometry":{"type":"Point","coordinates":[139.42268858256722,35.70766201771967]}}
,{"type": "Feature","properties":{"time":"2025-07-01T03:41:47.000Z","provider":"gps","time_long":1751341307000,"accuracy":2.4684682,"altitude":124.50324511324614,"bearing":233.39761,"speed":6.165989},"geometry":{"type":"Point","coordinates":[139.42235118006045,35.70746180485905]}}
,{"type": "Feature","properties":{"time":"2025-07-01T03:41:53.000Z","provider":"gps","time_long":1751341313000,"accuracy":2.4447718,"altitude":124.76610991860466,"bearing":229.23582,"speed":6.28896},"geometry":{"type":"Point","coordinates":[139.42202323362002,35.70724174663294]}}
,{"type": "Feature","properties":{"time":"2025-07-01T03:41:59.000Z","provider":"gps","time_long":1751341319000,"accuracy":2.602269,"altitude":124.71605112040601,"bearing":229.94824,"speed":6.466788},"geometry":{"type":"Point","coordinates":[139.42170759727546,35.707014077493824]}}
,{"type": "Feature","properties":{"time":"2025-07-01T03:42:05.000Z","provider":"gps","time_long":1751341325000,"accuracy":2.830638,"altitude":124.88520209029727,"bearing":228.40178,"speed":5.513634},"geometry":{"type":"Point","coordinates":[139.42139419438863,35.706803788277035]}}
,{"type": "Feature","properties":{"time":"2025-07-01T03:42:11.000Z","provider":"gps","time_long":1751341331000,"accuracy":2.5936885,"altitude":125.66168878118934,"bearing":230.98796,"speed":6.296594},"geometry":{"type":"Point","coordinates":[139.42107051413157,35.706573790813685]}}
,{"type": "Feature","properties":{"time":"2025-07-01T03:42:17.000Z","provider":"gps","time_long":1751341337000,"accuracy":2.5928357,"altitude":124.8036245672259,"bearing":229.99336,"speed":7.3797665},"geometry":{"type":"Point","coordinates":[139.42068932104382,35.70632934875966]}}
,{"type": "Feature","properties":{"time":"2025-07-01T03:42:23.000Z","provider":"gps","time_long":1751341343000,"accuracy":2.8821795,"altitude":124.20307685765093,"bearing":229.47427,"speed":6.5859656},"geometry":{"type":"Point","coordinates":[139.42034026414873,35.70609292905565]}}
,{"type": "Feature","properties":{"time":"2025-07-01T03:42:29.000Z","provider":"gps","time_long":1751341349000,"accuracy":2.869803,"altitude":124.56773445057951,"bearing":229.55511,"speed":6.958728},"geometry":{"type":"Point","coordinates":[139.42000321492029,35.70584039760396]}}
,{"type": "Feature","properties":{"time":"2025-07-01T03:42:35.000Z","provider":"gps","time_long":1751341355000,"accuracy":2.623379,"altitude":122.84366991545245,"bearing":231.06601,"speed":7.231606},"geometry":{"type":"Point","coordinates":[139.41964330047932,35.70559385594226]}}
,{"type": "Feature","properties":{"time":"2025-07-01T03:42:41.000Z","provider":"gps","time_long":1751341361000,"accuracy":2.8857043,"altitude":122.52123044418126,"bearing":231.31334,"speed":6.8670263},"geometry":{"type":"Point","coordinates":[139.41926407530906,35.705350352573035]}}
,{"type": "Feature","properties":{"time":"2025-07-01T03:42:47.000Z","provider":"gps","time_long":1751341367000,"accuracy":3.014635,"altitude":125.45077051439597,"bearing":226.14108,"speed":6.830898},"geometry":{"type":"Point","coordinates":[139.41895023313919,35.70507953969518]}}
,{"type": "Feature","properties":{"time":"2025-07-01T03:42:53.000Z","provider":"gps","time_long":1751341373000,"accuracy":2.0044136,"altitude":128.58134798926125,"bearing":222.72147,"speed":6.4616504},"geometry":{"type":"Point","coordinates":[139.41864479630075,35.70481198258409]}}
,{"type": "Feature","properties":{"time":"2025-07-01T03:42:59.000Z","provider":"gps","time_long":1751341379000,"accuracy":1.8047259,"altitude":125.97897678752946,"bearing":224.77827,"speed":6.42768},"geometry":{"type":"Point","coordinates":[139.41832293665,35.70454946901909]}}
,{"type": "Feature","properties":{"time":"2025-07-01T03:43:05.000Z","provider":"gps","time_long":1751341385000,"accuracy":2.6448793,"altitude":124.29410386846006,"bearing":225.98827,"speed":6.0821366},"geometry":{"type":"Point","coordinates":[139.41804149886804,35.704309083619144]}}
,{"type": "Feature","properties":{"time":"2025-07-01T03:43:11.000Z","provider":"gps","time_long":1751341391000,"accuracy":1.6722364,"altitude":124.08321279868598,"bearing":224.50021,"speed":6.0261025},"geometry":{"type":"Point","coordinates":[139.41774111610033,35.7040630619266]}}
,{"type": "Feature","properties":{"time":"2025-07-01T03:43:17.000Z","provider":"gps","time_long":1751341397000,"accuracy":2.4850545,"altitude":124.91682789795848,"bearing":221.53882,"speed":5.6106987},"geometry":{"type":"Point","coordinates":[139.41747564276523,35.70383606545912]}}
,{"type": "Feature","properties":{"time":"2025-07-01T03:43:23.000Z","provider":"gps","time_long":1751341403000,"accuracy":1.7671578,"altitude":127.05594182309592,"bearing":217.7621,"speed":6.3425994},"geometry":{"type":"Point","coordinates":[139.41721374758274,35.703592671284504]}}
,{"type": "Feature","properties":{"time":"2025-07-01T03:43:29.000Z","provider":"gps","time_long":1751341409000,"accuracy":2.0739846,"altitude":128.80346358861826,"bearing":216.16142,"speed":5.8793516},"geometry":{"type":"Point","coordinates":[139.4169602127254,35.70332059151689]}}
,{"type": "Feature","properties":{"time":"2025-07-01T03:43:35.000Z","provider":"gps","time_long":1751341415000,"accuracy":1.5101099,"altitude":128.4046418851591,"bearing":182.82928,"speed":1.5856813},"geometry":{"type":"Point","coordinates":[139.41684030561674,35.7031851916792]}}
,{"type": "Feature","properties":{"time":"2025-07-01T03:43:41.000Z","provider":"gps","time_long":1751341421000,"accuracy":2.4999719,"altitude":128.64572819132616,"bearing":218.29282,"speed":4.268535},"geometry":{"type":"Point","coordinates":[139.41671118115238,35.70305034059258]}}
,{"type": "Feature","properties":{"time":"2025-07-01T03:43:47.000Z","provider":"gps","time_long":1751341427000,"accuracy":2.584964,"altitude":129.20758352333553,"bearing":216.46513,"speed":5.694456},"geometry":{"type":"Point","coordinates":[139.41651256651593,35.70283237604586]}}
,{"type": "Feature","properties":{"time":"2025-07-01T03:43:53.000Z","provider":"gps","time_long":1751341433000,"accuracy":2.6641636,"altitude":132.30564350250202,"bearing":218.37196,"speed":5.98962},"geometry":{"type":"Point","coordinates":[139.41630650451827,35.702595652306115]}}
,{"type": "Feature","properties":{"time":"2025-07-01T03:43:59.000Z","provider":"gps","time_long":1751341439000,"accuracy":2.1234212,"altitude":134.67356070972653,"bearing":216.66101,"speed":5.862874},"geometry":{"type":"Point","coordinates":[139.4160839834429,35.702295454699936]}}
,{"type": "Feature","properties":{"time":"2025-07-01T03:44:05.000Z","provider":"gps","time_long":1751341445000,"accuracy":3.0541072,"altitude":135.2003395260503,"bearing":209.051,"speed":5.055225},"geometry":{"type":"Point","coordinates":[139.41588328281688,35.70205283347694]}}
,{"type": "Feature","properties":{"time":"2025-07-01T03:44:11.000Z","provider":"gps","time_long":1751341451000,"accuracy":2.959723,"altitude":131.14835251291967,"bearing":203.02448,"speed":4.5056653},"geometry":{"type":"Point","coordinates":[139.41571235857276,35.70180565840649]}}
,{"type": "Feature","properties":{"time":"2025-07-01T03:44:17.000Z","provider":"gps","time_long":1751341457000,"accuracy":3.0221114,"altitude":131.91133366439746,"bearing":187.28625,"speed":2.0180032},"geometry":{"type":"Point","coordinates":[139.41558109507622,35.701598951460355]}}
,{"type": "Feature","properties":{"time":"2025-07-01T03:44:23.000Z","provider":"gps","time_long":1751341463000,"accuracy":3.0529542,"altitude":139.31093922250355,"bearing":201.02414,"speed":0.47536963},"geometry":{"type":"Point","coordinates":[139.41550852793543,35.70152788323116]}}
,{"type": "Feature","properties":{"time":"2025-07-01T03:44:41.000Z","provider":"gps","time_long":1751341481000,"accuracy":3.6079059,"altitude":146.36262101571302,"bearing":207.41777,"speed":4.855799},"geometry":{"type":"Point","coordinates":[139.41540679023612,35.70129436683]}}
,{"type": "Feature","properties":{"time":"2025-07-01T03:44:47.000Z","provider":"gps","time_long":1751341487000,"accuracy":2.979939,"altitude":140.94992804962746,"bearing":209.66238,"speed":4.227455},"geometry":{"type":"Point","coordinates":[139.4153226265572,35.70108534020487]}}
,{"type": "Feature","properties":{"time":"2025-07-01T03:44:53.000Z","provider":"gps","time_long":1751341493000,"accuracy":2.6637685,"altitude":135.23075807012756,"bearing":203.1453,"speed":4.56578},"geometry":{"type":"Point","coordinates":[139.41519242253625,35.70080690775567]}}
,{"type": "Feature","properties":{"time":"2025-07-01T03:44:59.000Z","provider":"gps","time_long":1751341499000,"accuracy":3.8635132,"altitude":131.25197541362107,"bearing":195.11247,"speed":3.541389},"geometry":{"type":"Point","coordinates":[139.4151176468147,35.700553711476495]}}
,{"type": "Feature","properties":{"time":"2025-07-01T03:45:05.000Z","provider":"gps","time_long":1751341505000,"accuracy":2.514856,"altitude":128.02515988794877,"bearing":120.3264,"speed":3.1075656},"geometry":{"type":"Point","coordinates":[139.41516148809978,35.70046103577012]}}
,{"type": "Feature","properties":{"time":"2025-07-01T03:45:11.000Z","provider":"gps","time_long":1751341511000,"accuracy":2.0723088,"altitude":126.8675012298797,"bearing":92.03801,"speed":3.0717788},"geometry":{"type":"Point","coordinates":[139.41536830153802,35.70042936283685]}}
,{"type": "Feature","properties":{"time":"2025-07-01T03:45:17.000Z","provider":"gps","time_long":1751341517000,"accuracy":2.2316582,"altitude":125.2862954351419,"bearing":89.939354,"speed":3.0693343},"geometry":{"type":"Point","coordinates":[139.41557014979472,35.700417303325]}}
,{"type": "Feature","properties":{"time":"2025-07-01T03:45:23.000Z","provider":"gps","time_long":1751341523000,"accuracy":3.4491577,"altitude":127.12675578676746,"bearing":81.25567,"speed":1.2275511},"geometry":{"type":"Point","coordinates":[139.41571215286388,35.70040316707535]}}
,{"type": "Feature","properties":{"time":"2025-07-01T03:45:29.000Z","provider":"gps","time_long":1751341529000,"accuracy":4.298324,"altitude":126.58580966026788,"bearing":36.329567,"speed":1.6584369},"geometry":{"type":"Point","coordinates":[139.41578605881836,35.70043274224944]}}
,{"type": "Feature","properties":{"time":"2025-07-01T03:45:35.000Z","provider":"gps","time_long":1751341535000,"accuracy":5.8620358,"altitude":125.58431890604602,"bearing":0.21172366,"speed":1.1901098},"geometry":{"type":"Point","coordinates":[139.4158234794014,35.700505430571255]}}
,{"type": "Feature","properties":{"time":"2025-07-01T03:45:41.000Z","provider":"gps","time_long":1751341541000,"accuracy":4.881464,"altitude":122.91905923207906,"bearing":13.3152685,"speed":0.77093786},"geometry":{"type":"Point","coordinates":[139.41584713434673,35.70058718818023]}}
,{"type": "Feature","properties":{"time":"2025-07-01T03:45:52.999Z","provider":"gps","time_long":1751341552999,"accuracy":4.1390834,"altitude":123.58700169072803,"bearing":336.72168,"speed":0.0},"geometry":{"type":"Point","coordinates":[139.41585223068788,35.700641753551636]}}
]}